STARLINK-5603           
1 55762U 23028X   26068.84459013  .00001195  00000+0  10793-3 0  9994
2 55762  69.9999 224.1705 0002971 283.5630  76.5198 14.98338887166553
SHIYAN-24C 01           
1 58650U 23206A   26068.89348774  .00002076  00000+0  18089-3 0  9992
2 58650  97.3976  41.7846 0003675 132.3262 227.8273 14.97903598120444
